CCSDS_OMM_VERS = 2.0
CREATION_DATE  = 
ORIGINATOR     = 

OBJECT_NAME    = COSMOS 1892
OBJECT_ID      = 1987-088A
CENTER_NAME    = EARTH
REF_FRAME      = TEME
TIME_SYSTEM    = UTC
MEAN_ELEMENT_THEORY = SGP/SGP4

EPOCH          = 2025-11-19T06:15:40.144320
MEAN_MOTION    = 16.05517350
ECCENTRICITY   = .00060761
INCLINATION    = 82.4671
RA_OF_ASC_NODE = 70.2301
ARG_OF_PERICENTER = 273.4481
MEAN_ANOMALY   = 86.6104

EPHEMERIS_TYPE = 0
CLASSIFICATION_TYPE = U
NORAD_CAT_ID   = 18421
ELEMENT_SET_NO = 999
REV_AT_EPOCH   = 8755
BSTAR          = .68874979E-3
MEAN_MOTION_DOT = .483067E-2
MEAN_MOTION_DDOT = .10827384E-3

CCSDS_OMM_VERS = 2.0
CREATION_DATE  = 
ORIGINATOR     = 

OBJECT_NAME    = SL-14 R/B
OBJECT_ID      = 1988-001B
CENTER_NAME    = EARTH
REF_FRAME      = TEME
TIME_SYSTEM    = UTC
MEAN_ELEMENT_THEORY = SGP/SGP4

EPOCH          = 2025-11-19T04:50:01.121568
MEAN_MOTION    = 14.85387787
ECCENTRICITY   = .00166082
INCLINATION    = 82.5108
RA_OF_ASC_NODE = 299.2899
ARG_OF_PERICENTER = 241.4558
MEAN_ANOMALY   = 118.4987

EPHEMERIS_TYPE = 0
CLASSIFICATION_TYPE = U
NORAD_CAT_ID   = 18749
ELEMENT_SET_NO = 999
REV_AT_EPOCH   = 2562
BSTAR          = .78892689E-4
MEAN_MOTION_DOT = .704E-5
MEAN_MOTION_DDOT = 0

CCSDS_OMM_VERS = 2.0
CREATION_DATE  = 
ORIGINATOR     = 

OBJECT_NAME    = COSMOS 1933
OBJECT_ID      = 1988-020A
CENTER_NAME    = EARTH
REF_FRAME      = TEME
TIME_SYSTEM    = UTC
MEAN_ELEMENT_THEORY = SGP/SGP4

EPOCH          = 2025-11-19T04:53:57.830784
MEAN_MOTION    = 15.16850902
ECCENTRICITY   = .00035083
INCLINATION    = 82.5143
RA_OF_ASC_NODE = 0.1296
ARG_OF_PERICENTER = 201.1445
MEAN_ANOMALY   = 158.9643

EPHEMERIS_TYPE = 0
CLASSIFICATION_TYPE = U
NORAD_CAT_ID   = 18958
ELEMENT_SET_NO = 999
REV_AT_EPOCH   = 3347
BSTAR          = .20519337E-3
MEAN_MOTION_DOT = .4066E-4
MEAN_MOTION_DDOT = 0

CCSDS_OMM_VERS = 2.0
CREATION_DATE  = 
ORIGINATOR     = 

OBJECT_NAME    = SL-3 R/B
OBJECT_ID      = 1988-032B
CENTER_NAME    = EARTH
REF_FRAME      = TEME
TIME_SYSTEM    = UTC
MEAN_ELEMENT_THEORY = SGP/SGP4

EPOCH          = 2025-11-19T04:56:11.671296
MEAN_MOTION    = 15.18409037
ECCENTRICITY   = .00248393
INCLINATION    = 97.5053
RA_OF_ASC_NODE = 302.0982
ARG_OF_PERICENTER = 258.4052
MEAN_ANOMALY   = 101.4394

EPHEMERIS_TYPE = 0
CLASSIFICATION_TYPE = U
NORAD_CAT_ID   = 19046
ELEMENT_SET_NO = 999
REV_AT_EPOCH   = 3533
BSTAR          = .29298017E-3
MEAN_MOTION_DOT = .6006E-4
MEAN_MOTION_DDOT = 0

CCSDS_OMM_VERS = 2.0
CREATION_DATE  = 
ORIGINATOR     = 

OBJECT_NAME    = SL-16 R/B
OBJECT_ID      = 1988-039B
CENTER_NAME    = EARTH
REF_FRAME      = TEME
TIME_SYSTEM    = UTC
MEAN_ELEMENT_THEORY = SGP/SGP4

EPOCH          = 2025-11-19T06:46:48.698112
MEAN_MOTION    = 14.19590556
ECCENTRICITY   = .00207397
INCLINATION    = 71.0141
RA_OF_ASC_NODE = 301.9967
ARG_OF_PERICENTER = 155.2011
MEAN_ANOMALY   = 205.0116

EPHEMERIS_TYPE = 0
CLASSIFICATION_TYPE = U
NORAD_CAT_ID   = 19120
ELEMENT_SET_NO = 999
REV_AT_EPOCH   = 94271
BSTAR          = .58598884E-4
MEAN_MOTION_DOT = .76E-6
MEAN_MOTION_DDOT = 0

CCSDS_OMM_VERS = 2.0
CREATION_DATE  = 
ORIGINATOR     = 

OBJECT_NAME    = COSMOS 1953
OBJECT_ID      = 1988-050A
CENTER_NAME    = EARTH
REF_FRAME      = TEME
TIME_SYSTEM    = UTC
MEAN_ELEMENT_THEORY = SGP/SGP4

EPOCH          = 2025-11-19T05:46:25.407840
MEAN_MOTION    = 15.26559877
ECCENTRICITY   = .00129093
INCLINATION    = 82.5078
RA_OF_ASC_NODE = 269.1526
ARG_OF_PERICENTER = 143.8599
MEAN_ANOMALY   = 216.3515

EPHEMERIS_TYPE = 0
CLASSIFICATION_TYPE = U
NORAD_CAT_ID   = 19210
ELEMENT_SET_NO = 999
REV_AT_EPOCH   = 2092
BSTAR          = .2154129E-3
MEAN_MOTION_DOT = .5677E-4
MEAN_MOTION_DDOT = 0

CCSDS_OMM_VERS = 2.0
CREATION_DATE  = 
ORIGINATOR     = 

OBJECT_NAME    = SL-8 R/B
OBJECT_ID      = 1988-053B
CENTER_NAME    = EARTH
REF_FRAME      = TEME
TIME_SYSTEM    = UTC
MEAN_ELEMENT_THEORY = SGP/SGP4

EPOCH          = 2025-11-19T05:43:44.765184
MEAN_MOTION    = 14.38840034
ECCENTRICITY   = .00197382
INCLINATION    = 74.0467
RA_OF_ASC_NODE = 316.0343
ARG_OF_PERICENTER = 167.9310
MEAN_ANOMALY   = 203.6058

EPHEMERIS_TYPE = 0
CLASSIFICATION_TYPE = U
NORAD_CAT_ID   = 19257
ELEMENT_SET_NO = 999
REV_AT_EPOCH   = 96071
BSTAR          = .11283257E-3
MEAN_MOTION_DOT = .322E-5
MEAN_MOTION_DDOT = 0

CCSDS_OMM_VERS = 2.0
CREATION_DATE  = 
ORIGINATOR     = 

OBJECT_NAME    = COSMOS 1975
OBJECT_ID      = 1988-093A
CENTER_NAME    = EARTH
REF_FRAME      = TEME
TIME_SYSTEM    = UTC
MEAN_ELEMENT_THEORY = SGP/SGP4

EPOCH          = 2025-11-19T05:50:39.088608
MEAN_MOTION    = 15.25972517
ECCENTRICITY   = .00106642
INCLINATION    = 82.5221
RA_OF_ASC_NODE = 228.3376
ARG_OF_PERICENTER = 190.1087
MEAN_ANOMALY   = 169.9939

EPHEMERIS_TYPE = 0
CLASSIFICATION_TYPE = U
NORAD_CAT_ID   = 19573
ELEMENT_SET_NO = 999
REV_AT_EPOCH   = 255
BSTAR          = .34700134E-3
MEAN_MOTION_DOT = .896E-4
MEAN_MOTION_DDOT = 0

CCSDS_OMM_VERS = 2.0
CREATION_DATE  = 
ORIGINATOR     = 

OBJECT_NAME    = SL-14 R/B
OBJECT_ID      = 1988-093B
CENTER_NAME    = EARTH
REF_FRAME      = TEME
TIME_SYSTEM    = UTC
MEAN_ELEMENT_THEORY = SGP/SGP4

EPOCH          = 2025-11-19T06:55:03.728640
MEAN_MOTION    = 14.85514369
ECCENTRICITY   = .00218711
INCLINATION    = 82.5292
RA_OF_ASC_NODE = 145.6756
ARG_OF_PERICENTER = 46.4167
MEAN_ANOMALY   = 126.7050

EPHEMERIS_TYPE = 0
CLASSIFICATION_TYPE = U
NORAD_CAT_ID   = 19574
ELEMENT_SET_NO = 999
REV_AT_EPOCH   = 98464
BSTAR          = .67322544E-4
MEAN_MOTION_DOT = .608E-5
MEAN_MOTION_DDOT = 0

CCSDS_OMM_VERS = 2.0
CREATION_DATE  = 
ORIGINATOR     = 

OBJECT_NAME    = SL-16 R/B
OBJECT_ID      = 1988-102B
CENTER_NAME    = EARTH
REF_FRAME      = TEME
TIME_SYSTEM    = UTC
MEAN_ELEMENT_THEORY = SGP/SGP4

EPOCH          = 2025-11-19T06:57:26.681760
MEAN_MOTION    = 14.16131583
ECCENTRICITY   = .00144144
INCLINATION    = 71.0010
RA_OF_ASC_NODE = 23.7839
ARG_OF_PERICENTER = 188.0726
MEAN_ANOMALY   = 172.0168

EPHEMERIS_TYPE = 0
CLASSIFICATION_TYPE = U
NORAD_CAT_ID   = 19650
ELEMENT_SET_NO = 999
REV_AT_EPOCH   = 91126
BSTAR          = .13302972E-3
MEAN_MOTION_DOT = .216E-5
MEAN_MOTION_DDOT = 0

CCSDS_OMM_VERS = 2.0
CREATION_DATE  = 
ORIGINATOR     = 

OBJECT_NAME    = INTERCOSMOS 24
OBJECT_ID      = 1989-080A
CENTER_NAME    = EARTH
REF_FRAME      = TEME
TIME_SYSTEM    = UTC
MEAN_ELEMENT_THEORY = SGP/SGP4

EPOCH          = 2025-11-19T01:37:07.591872
MEAN_MOTION    = 12.59383924
ECCENTRICITY   = .11882994
INCLINATION    = 82.6059
RA_OF_ASC_NODE = 176.3454
ARG_OF_PERICENTER = 189.4269
MEAN_ANOMALY   = 168.2613

EPHEMERIS_TYPE = 0
CLASSIFICATION_TYPE = U
NORAD_CAT_ID   = 20261
ELEMENT_SET_NO = 999
REV_AT_EPOCH   = 65287
BSTAR          = .21571425E-3
MEAN_MOTION_DOT = .743E-5
MEAN_MOTION_DDOT = 0

CCSDS_OMM_VERS = 2.0
CREATION_DATE  = 
ORIGINATOR     = 

OBJECT_NAME    = SL-14 R/B
OBJECT_ID      = 1989-080C
CENTER_NAME    = EARTH
REF_FRAME      = TEME
TIME_SYSTEM    = UTC
MEAN_ELEMENT_THEORY = SGP/SGP4

EPOCH          = 2025-11-19T05:19:18.234912
MEAN_MOTION    = 12.50387102
ECCENTRICITY   = .12311169
INCLINATION    = 82.5938
RA_OF_ASC_NODE = 244.1125
ARG_OF_PERICENTER = 77.3200
MEAN_ANOMALY   = 296.2420

EPHEMERIS_TYPE = 0
CLASSIFICATION_TYPE = U
NORAD_CAT_ID   = 20262
ELEMENT_SET_NO = 999
REV_AT_EPOCH   = 64634
BSTAR          = .12120818E-3
MEAN_MOTION_DOT = .433E-5
MEAN_MOTION_DDOT = 0

