COSMOS 1892             
1 18421U 87088A   25323.26088130  .00483067  10827-3  68875-3 0  9996
2 18421  82.4671  70.2301 0006076 273.4481  86.6104 16.05517350 87550
SL-14 R/B               
1 18749U 88001B   25323.20140187  .00000704  00000+0  78893-4 0  9993
2 18749  82.5108 299.2899 0016608 241.4558 118.4987 14.85387787 25624
COSMOS 1933             
1 18958U 88020A   25323.20414156  .00004066  00000+0  20519-3 0  9992
2 18958  82.5143   0.1296 0003508 201.1445 158.9643 15.16850902 33477
SL-3 R/B                
1 19046U 88032B   25323.20569064  .00006006  00000+0  29298-3 0  9992
2 19046  97.5053 302.0982 0024839 258.4052 101.4394 15.18409037 35331
SL-16 R/B               
1 19120U 88039B   25323.28250808  .00000076  00000+0  58599-4 0  9991
2 19120  71.0141 301.9967 0020739 155.2011 205.0116 14.19590556942713
COSMOS 1953             
1 19210U 88050A   25323.24057185  .00005677  00000+0  21541-3 0  9991
2 19210  82.5078 269.1526 0012909 143.8599 216.3515 15.26559877 20927
SL-8 R/B                
1 19257U 88053B   25323.23871256  .00000322  00000+0  11283-3 0  9991
2 19257  74.0467 316.0343 0019738 167.9310 203.6058 14.38840034960711
COSMOS 1975             
1 19573U 88093A   25323.24350797  .00008960  00000+0  34700-3 0  9994
2 19573  82.5221 228.3376 0010664 190.1087 169.9939 15.25972517  2553
SL-14 R/B               
1 19574U 88093B   25323.28823760  .00000608  00000+0  67323-4 0  9993
2 19574  82.5292 145.6756 0021871  46.4167 126.7050 14.85514369984645
SL-16 R/B               
1 19650U 88102B   25323.28989215  .00000216  00000+0  13303-3 0  9990
2 19650  71.0010  23.7839 0014414 188.0726 172.0168 14.16131583911267
INTERCOSMOS 24          
1 20261U 89080A   25323.06744898  .00000743  00000+0  21571-3 0  9999
2 20261  82.6059 176.3454 1188299 189.4269 168.2613 12.59383924652871
SL-14 R/B               
1 20262U 89080C   25323.22173883  .00000433  00000+0  12121-3 0  9995
2 20262  82.5938 244.1125 1231116  77.3200 296.2420 12.50387102646349
